start=new Date('2023-05-26T00:00:00.000Z').valueOf();
sats=[{"MEAN_ANOMALY":"278.0027","TLE_LINE2":"2 47744  53.0543  95.1458 0001384  82.1119 278.0027 15.06406791124369","OBJECT_NAME":"STARLINK-2158","COUNTRY_CODE":"US","RA_OF_ASC_NODE":"95.1458","PERIOD":"95.592","ELEMENT_SET_NO":"999","APOAPSIS":"548.151","MEAN_MOTION_DDOT":"0.0000000000000","PERIAPSIS":"546.234","MEAN_MOTION_DOT":"0.00000602","MEAN_ELEMENT_THEORY":"SGP4","ARG_OF_PERICENTER":"82.1119","SITE":"AFETR","REV_AT_EPOCH":"12436","INCLINATION":"53.0543","CLASSIFICATION_TYPE":"U","GP_ID":"232515513","SEMIMAJOR_AXIS":"6925.328","OBJECT_ID":"2021-017Y","FILE":"3917122","NORAD_CAT_ID":"47744","DECAY_DATE":null,"CENTER_NAME":"EARTH","OBJECT_TYPE":"PAYLOAD","RCS_SIZE":"LARGE","ECCENTRICITY":"0.00013840","MEAN_MOTION":"15.06406791","BSTAR":"0.00005928900000","TLE_LINE1":"1 47744U 21017Y   23145.88872360  .00000602  00000-0  59289-4 0  9999","TIME_SYSTEM":"UTC","REF_FRAME":"TEME","EPHEMERIS_TYPE":"0","EPOCH":"2023-05-25T21:19:45.719040","LAUNCH_DATE":"2021-03-04"},{"ELEMENT_SET_NO":"999","PERIOD":"95.592","RA_OF_ASC_NODE":"105.0418","COUNTRY_CODE":"US","OBJECT_NAME":"STARLINK-2159","MEAN_ANOMALY":"263.0849","TLE_LINE2":"2 47745  53.0539 105.0418 0001487  97.0309 263.0849 15.06400911124175","MEAN_ELEMENT_THEORY":"SGP4","MEAN_MOTION_DOT":"-0.00000754","PERIAPSIS":"546.181","MEAN_MOTION_DDOT":"0.0000000000000","APOAPSIS":"548.241","SITE":"AFETR","REV_AT_EPOCH":"12417","ARG_OF_PERICENTER":"97.0309","GP_ID":"232514261","CLASSIFICATION_TYPE":"U","INCLINATION":"53.0539","DECAY_DATE":null,"CENTER_NAME":"EARTH","NORAD_CAT_ID":"47745","FILE":"3917122","SEMIMAJOR_AXIS":"6925.346","OBJECT_ID":"2021-017Z","RCS_SIZE":"LARGE","OBJECT_TYPE":"PAYLOAD","EPHEMERIS_TYPE":"0","REF_FRAME":"TEME","TIME_SYSTEM":"UTC","TLE_LINE1":"1 47745U 21017Z   23145.92193122 -.00000754  00000-0 -31744-4 0  9993","BSTAR":"-0.00003174400000","ECCENTRICITY":"0.00014870","MEAN_MOTION":"15.06400911","LAUNCH_DATE":"2021-03-04","EPOCH":"2023-05-25T22:07:34.857408"},{"OBJECT_TYPE":"PAYLOAD","RCS_SIZE":"LARGE","SEMIMAJOR_AXIS":"6925.346","OBJECT_ID":"2021-017AA","FILE":"3917122","CENTER_NAME":"EARTH","DECAY_DATE":null,"NORAD_CAT_ID":"47746","EPOCH":"2023-05-25T20:21:25.229952","LAUNCH_DATE":"2021-03-04","MEAN_MOTION":"15.06400708","ECCENTRICITY":"0.00015910","TIME_SYSTEM":"UTC","TLE_LINE1":"1 47746U 21017AA  23145.84820868  .00000875  00000-0  77639-4 0  9994","BSTAR":"0.00007763900000","EPHEMERIS_TYPE":"0","REF_FRAME":"TEME","APOAPSIS":"548.313","PERIAPSIS":"546.110","MEAN_MOTION_DDOT":"0.0000000000000","MEAN_ELEMENT_THEORY":"SGP4","MEAN_MOTION_DOT":"0.00000875","MEAN_ANOMALY":"271.7994","TLE_LINE2":"2 47746  53.0548 105.3755 0001591  88.3177 271.7994 15.06400708124154","RA_OF_ASC_NODE":"105.3755","OBJECT_NAME":"STARLINK-2160","COUNTRY_CODE":"US","PERIOD":"95.592","ELEMENT_SET_NO":"999","CLASSIFICATION_TYPE":"U","INCLINATION":"53.0548","GP_ID":"232514511","ARG_OF_PERICENTER":"88.3177","SITE":"AFETR","REV_AT_EPOCH":"12415"},{"EPOCH":"2023-05-24T04:28:57.913824","LAUNCH_DATE":"2021-03-04","ECCENTRICITY":"0.00013560","MEAN_MOTION":"15.06389029","TIME_SYSTEM":"UTC","TLE_LINE1":"1 47747U 21017AB  23144.18678141  .00001787  00000-0  13884-3 0  9990","BSTAR":"0.00013884000000","EPHEMERIS_TYPE":"0","REF_FRAME":"TEME","OBJECT_TYPE":"PAYLOAD","RCS_SIZE":"LARGE","SEMIMAJOR_AXIS":"6925.382","OBJECT_ID":"2021-017AB","FILE":"3916549","DECAY_DATE":null,"CENTER_NAME":"EARTH","NORAD_CAT_ID":"47747","CLASSIFICATION_TYPE":"U","INCLINATION":"53.0542","GP_ID":"232448818","ARG_OF_PERICENTER":"106.5214","SITE":"AFETR","REV_AT_EPOCH":"12408","APOAPSIS":"548.186","PERIAPSIS":"546.308","MEAN_MOTION_DDOT":"0.0000000000000","MEAN_ELEMENT_THEORY":"SGP4","MEAN_MOTION_DOT":"0.00001787","TLE_LINE2":"2 47747  53.0542 102.8373 0001356 106.5214 253.5924 15.06389029124086","MEAN_ANOMALY":"253.5924","RA_OF_ASC_NODE":"102.8373","COUNTRY_CODE":"US","OBJECT_NAME":"STARLINK-2161","PERIOD":"95.593","ELEMENT_SET_NO":"999"},{"EPOCH":"2023-05-24T04:18:21.084480","LAUNCH_DATE":"2021-03-04","ECCENTRICITY":"0.00015890","MEAN_MOTION":"15.06396469","TIME_SYSTEM":"UTC","BSTAR":"0.00024660000000","TLE_LINE1":"1 47748U 21017AC  23144.17941070  .00003393  00000-0  24660-3 0  9993","EPHEMERIS_TYPE":"0","REF_FRAME":"TEME","OBJECT_TYPE":"PAYLOAD","RCS_SIZE":"LARGE","OBJECT_ID":"2021-017AC","SEMIMAJOR_AXIS":"6925.359","FILE":"3916549","DECAY_DATE":null,"CENTER_NAME":"EARTH","NORAD_CAT_ID":"47748","CLASSIFICATION_TYPE":"U","INCLINATION":"53.0543","GP_ID":"232448074","ARG_OF_PERICENTER":"75.9556","REV_AT_EPOCH":"12405","SITE":"AFETR","APOAPSIS":"548.325","PERIAPSIS":"546.124","MEAN_MOTION_DDOT":"0.0000000000000","MEAN_ELEMENT_THEORY":"SGP4","MEAN_MOTION_DOT":"0.00003393","TLE_LINE2":"2 47748  53.0543 102.8708 0001589  75.9556 284.1609 15.06396469124059","MEAN_ANOMALY":"284.1609","RA_OF_ASC_NODE":"102.8708","COUNTRY_CODE":"US","OBJECT_NAME":"STARLINK-2162","PERIOD":"95.592","ELEMENT_SET_NO":"999"},{"GP_ID":"232513761","INCLINATION":"53.0537","CLASSIFICATION_TYPE":"U","REV_AT_EPOCH":"12430","SITE":"AFETR","ARG_OF_PERICENTER":"94.8853","MEAN_MOTION_DOT":"0.00001566","MEAN_ELEMENT_THEORY":"SGP4","MEAN_MOTION_DDOT":"0.0000000000000","PERIAPSIS":"546.214","APOAPSIS":"548.219","ELEMENT_SET_NO":"999","PERIOD":"95.592","OBJECT_NAME":"STARLINK-2163","COUNTRY_CODE":"US","RA_OF_ASC_NODE":"95.3555","TLE_LINE2":"2 47749  53.0537  95.3555 0001448  94.8853 265.2302 15.06398980124301","MEAN_ANOMALY":"265.2302","LAUNCH_DATE":"2021-03-04","EPOCH":"2023-05-25T20:28:04.118880","EPHEMERIS_TYPE":"0","REF_FRAME":"TEME","TLE_LINE1":"1 47749U 21017AD  23145.85282545  .00001566  00000-0  12401-3 0  9995","BSTAR":"0.00012401000000","TIME_SYSTEM":"UTC","ECCENTRICITY":"0.00014480","MEAN_MOTION":"15.06398980","RCS_SIZE":"LARGE","OBJECT_TYPE":"PAYLOAD","NORAD_CAT_ID":"47749","DECAY_DATE":null,"CENTER_NAME":"EARTH","FILE":"3917122","SEMIMAJOR_AXIS":"6925.352","OBJECT_ID":"2021-017AD"},{"LAUNCH_DATE":"2021-03-04","EPOCH":"2023-05-25T21:31:46.993152","EPHEMERIS_TYPE":"0","REF_FRAME":"TEME","TIME_SYSTEM":"UTC","BSTAR":"0.00041122000000","TLE_LINE1":"1 47750U 21017AE  23145.89707168  .00005849  00000-0  41122-3 0  9994","ECCENTRICITY":"0.00015700","MEAN_MOTION":"15.06401325","RCS_SIZE":"LARGE","OBJECT_TYPE":"PAYLOAD","DECAY_DATE":null,"CENTER_NAME":"EARTH","NORAD_CAT_ID":"47750","FILE":"3917122","SEMIMAJOR_AXIS":"6925.344","OBJECT_ID":"2021-017AE","GP_ID":"232514011","CLASSIFICATION_TYPE":"U","INCLINATION":"53.0539","REV_AT_EPOCH":"12431","SITE":"AFETR","ARG_OF_PERICENTER":"90.3476","MEAN_ELEMENT_THEORY":"SGP4","MEAN_MOTION_DOT":"0.00005849","PERIAPSIS":"546.122","MEAN_MOTION_DDOT":"0.0000000000000","APOAPSIS":"548.297","ELEMENT_SET_NO":"999","PERIOD":"95.592","RA_OF_ASC_NODE":"95.1593","OBJECT_NAME":"STARLINK-2164","COUNTRY_CODE":"US","TLE_LINE2":"2 47750  53.0539  95.1593 0001570  90.3476 269.7692 15.06401325124313","MEAN_ANOMALY":"269.7692"},{"SEMIMAJOR_AXIS":"6925.365","OBJECT_ID":"2021-017AF","DECAY_DATE":null,"CENTER_NAME":"EARTH","NORAD_CAT_ID":"47751","FILE":"3917122","OBJECT_TYPE":"PAYLOAD","RCS_SIZE":"LARGE","TIME_SYSTEM":"UTC","BSTAR":"0.00004653100000","TLE_LINE1":"1 47751U 21017AF  23145.86112247  .00000412  00000-0  46531-4 0  9991","ECCENTRICITY":"0.00012370","MEAN_MOTION":"15.06394577","EPHEMERIS_TYPE":"0","REF_FRAME":"TEME","EPOCH":"2023-05-25T20:40:00.981408","LAUNCH_DATE":"2021-03-04","RA_OF_ASC_NODE":"85.3145","OBJECT_NAME":"STARLINK-2168","COUNTRY_CODE":"US","MEAN_ANOMALY":"265.9290","TLE_LINE2":"2 47751  53.0546  85.3145 0001237  94.1840 265.9290 15.06394577124450","ELEMENT_SET_NO":"999","PERIOD":"95.592","APOAPSIS":"548.087","MEAN_ELEMENT_THEORY":"SGP4","MEAN_MOTION_DOT":"0.00000412","PERIAPSIS":"546.374","MEAN_MOTION_DDOT":"0.0000000000000","SITE":"AFETR","REV_AT_EPOCH":"12445","ARG_OF_PERICENTER":"94.1840","CLASSIFICATION_TYPE":"U","INCLINATION":"53.0546","GP_ID":"232514763"},{"ARG_OF_PERICENTER":"94.4913","REV_AT_EPOCH":"12429","SITE":"AFETR","GP_ID":"232515514","INCLINATION":"53.0543","CLASSIFICATION_TYPE":"U","PERIOD":"95.592","ELEMENT_SET_NO":"999","MEAN_ANOMALY":"265.6206","TLE_LINE2":"2 47752  53.0543 100.1658 0001139  94.4913 265.6206 15.06405273124290","OBJECT_NAME":"STARLINK-2169","COUNTRY_CODE":"US","RA_OF_ASC_NODE":"100.1658","MEAN_MOTION_DDOT":"0.0000000000000","PERIAPSIS":"546.409","MEAN_MOTION_DOT":"0.00003106","MEAN_ELEMENT_THEORY":"SGP4","APOAPSIS":"547.986","REF_FRAME":"TEME","EPHEMERIS_TYPE":"0","ECCENTRICITY":"0.00011390","MEAN_MOTION":"15.06405273","TLE_LINE1":"1 47752U 21017AG  23145.89474837  .00003106  00000-0  22730-3 0  9998","BSTAR":"0.00022730000000","TIME_SYSTEM":"UTC","LAUNCH_DATE":"2021-03-04","EPOCH":"2023-05-25T21:28:26.259168","FILE":"3917122","NORAD_CAT_ID":"47752","DECAY_DATE":null,"CENTER_NAME":"EARTH","SEMIMAJOR_AXIS":"6925.332","OBJECT_ID":"2021-017AG","RCS_SIZE":"LARGE","OBJECT_TYPE":"PAYLOAD"},{"MEAN_ANOMALY":"266.4700","TLE_LINE2":"2 47753  53.0537 112.7193 0001240  93.6430 266.4700 15.06390664123963","OBJECT_NAME":"STARLINK-2170","COUNTRY_CODE":"US","RA_OF_ASC_NODE":"112.7193","PERIOD":"95.593","ELEMENT_SET_NO":"999","APOAPSIS":"548.101","MEAN_MOTION_DDOT":"0.0000000000000","PERIAPSIS":"546.383","MEAN_MOTION_DOT":"0.00001451","MEAN_ELEMENT_THEORY":"SGP4","ARG_OF_PERICENTER":"93.6430","REV_AT_EPOCH":"12396","SITE":"AFETR","INCLINATION":"53.0537","CLASSIFICATION_TYPE":"U","GP_ID":"232447822","SEMIMAJOR_AXIS":"6925.377","OBJECT_ID":"2021-017AH","FILE":"3916549","NORAD_CAT_ID":"47753","DECAY_DATE":null,"CENTER_NAME":"EARTH","OBJECT_TYPE":"PAYLOAD","RCS_SIZE":"LARGE","ECCENTRICITY":"0.00012400","MEAN_MOTION":"15.06390664","BSTAR":"0.00011631000000","TLE_LINE1":"1 47753U 21017AH  23144.21166166  .00001451  00000-0  11631-3 0  9996","TIME_SYSTEM":"UTC","REF_FRAME":"TEME","EPHEMERIS_TYPE":"0","EPOCH":"2023-05-24T05:04:47.567424","LAUNCH_DATE":"2021-03-04"}];
